     2.100          NAVIGATION                              RINEX VERSION / TYPE
fic2rin                                 06/11/2017 00:06:19 PGM / RUN BY / DATE
                                                            END OF HEADER
 2 17  6 10 20  0  0.0  .401254743338D-03 -.807176547823D-11  .000000000000D+00
     .410000000000D+02 -.495625000000D+02  .469555273148D-08  .114343504699D+01
    -.259466469288D-05  .168146915967D-01  .112000852823D-04  .515380665970D+04
     .590400000000D+06 -.337138772011D-06 -.269842170880D+01 -.558793544769D-08
     .946830869158D+00  .164281250000D+03 -.197460502197D+01 -.817748348215D-08
     .113933317209D-09  .100000000000D+01  .195200000000D+04  .000000000000D+00
     .240000000000D+01  .000000000000D+00 -.204890966415D-07  .410000000000D+02
     .583206000000D+06  .400000000000D+01
 3 17  6 10 20  0  0.0 -.955648720264D-04  .238742359215D-11  .000000000000D+00
     .100000000000D+03  .164062500000D+02  .484698761078D-08  .188186632054D+00
     .707805156708D-06  .709941959940D-03  .561028718948D-05  .515371413803D+04
     .590400000000D+06  .111758708954D-07 -.160239574937D+01  .186264514923D-08
     .959396546946D+00  .268437500000D+03  .807839060482D-01 -.811390940547D-08
     .177150236161D-09  .100000000000D+01  .195200000000D+04  .000000000000D+00
     .340000000000D+01  .000000000000D+00  .232830643654D-08  .100000000000D+03
     .583206000000D+06  .400000000000D+01
 5 17  6 10 20  0  0.0 -.420357100666D-04  .170530256582D-11  .000000000000D+00
     .530000000000D+02  .205937500000D+02  .510878422994D-08 -.249753548783D+01
     .108033418655D-05  .499157491140D-02  .542774796486D-05  .515375367546D+04
     .590400000000D+06  .745058059692D-08 -.161944010112D+01 -.130385160446D-07
     .946360732637D+00  .268406250000D+03  .538410687538D+00 -.818748389871D-08
     .271797035723D-09  .100000000000D+01  .195200000000D+04  .000000000000D+00
     .240000000000D+01  .000000000000D+00 -.107102096081D-07  .530000000000D+02
     .583206000000D+06  .400000000000D+01
 6 17  6 10 20  0  0.0  .362647697330D-03  .500222085975D-11  .000000000000D+00
     .330000000000D+02 -.454687500000D+02  .409945647310D-08  .925953269739D+00
    -.248663127422D-05  .766391982324D-03  .106301158667D-04  .515369189644D+04
     .590400000000D+06  .931322574615D-08 -.265312797153D+01 -.279396772385D-07
     .967651032950D+00  .179093750000D+03 -.108938288355D+01 -.767139097280D-08
     .192865176466D-09  .100000000000D+01  .195200000000D+04  .000000000000D+00
     .240000000000D+01  .000000000000D+00  .465661287308D-08  .330000000000D+02
     .583206000000D+06  .400000000000D+01
 7 17  6 10 20  0  0.0  .341318547726D-03 -.443378667114D-11  .000000000000D+00
     .510000000000D+02  .875937500000D+02  .423624788530D-08  .210012932384D+00
     .471435487270D-05  .106311906129D-01  .963360071182D-05  .515374020767D+04
     .590400000000D+06  .838190317154D-07  .512088765341D+00  .214204192162D-06
     .962571441981D+00  .196562500000D+03 -.259714536772D+01 -.793247327650D-08
     .735744932444D-10  .100000000000D+01  .195200000000D+04  .000000000000D+00
     .240000000000D+01  .000000000000D+00 -.111758708954D-07  .510000000000D+02
     .583206000000D+06  .400000000000D+01
 8 17  6 10 20  0  0.0 -.626975670457D-04 -.125055521494D-11  .000000000000D+00
     .190000000000D+02 -.117156250000D+03  .453340312015D-08 -.278320894869D+01
    -.599212944508D-05  .255160941742D-02  .438280403614D-05  .515364754868D+04
     .590400000000D+06 -.931322574615D-08  .257586806983D+01  .614672899246D-07
     .966993092858D+00  .299281250000D+03 -.653246781185D+00 -.810819488172D-08
    -.243938732456D-09  .100000000000D+01  .195200000000D+04  .000000000000D+00
     .240000000000D+01  .000000000000D+00  .512227416039D-08  .190000000000D+02
     .583206000000D+06  .400000000000D+01
 9 17  6 10 20  0  0.0  .381969381124D-03  .807176547823D-11  .000000000000D+00
     .240000000000D+02 -.203125000000D+02  .464019328268D-08  .300202505352D+01
    -.962987542152D-06  .700736767612D-03  .769831240177D-05  .515361340523D+04
     .590400000000D+06 -.782310962677D-07 -.565942633165D+00 -.651925802231D-07
     .953481884302D+00  .228625000000D+03  .195641070543D+01 -.794283085079D-08
    -.531093550750D-09  .100000000000D+01  .195200000000D+04  .000000000000D+00
     .240000000000D+01  .000000000000D+00  .139698386192D-08  .240000000000D+02
     .583206000000D+06  .400000000000D+01
10 17  6 10 20  0  0.0 -.290023162961D-04  .114823706099D-10  .000000000000D+00
     .790000000000D+02  .163125000000D+02  .474769776067D-08 -.134977747988D+01
     .802800059319D-06  .256411847658D-02  .585988163948D-05  .515366239929D+04
     .590400000000D+06  .391155481339D-07 -.160610283645D+01 -.124797224998D-06
     .959561885947D+00  .268968750000D+03 -.276933923597D+01 -.800283335013D-08
     .198222542479D-09  .100000000000D+01  .195200000000D+04  .000000000000D+00
     .240000000000D+01  .000000000000D+00  .186264514923D-08  .790000000000D+02
     .583206000000D+06  .400000000000D+01
11 17  6 10 20  0  0.0 -.694387126714D-03 -.272848410532D-11  .000000000000D+00
     .640000000000D+02 -.905937500000D+02  .589953145345D-08  .226473560801D+00
    -.459142029285D-05  .168099090224D-01  .953115522861D-05  .515371605492D+04
     .590400000000D+06 -.206753611565D-06 -.304792425748D+01 -.726431608200D-07
     .901449266100D+00  .169593750000D+03  .164845373699D+01 -.887251243290D-08
    -.228580949885D-10  .100000000000D+01  .195200000000D+04  .000000000000D+00
     .240000000000D+01  .000000000000D+00 -.121071934700D-07  .640000000000D+02
     .583206000000D+06  .400000000000D+01
12 17  6 10 20  0  0.0  .381685327739D-03 -.909494701773D-12  .000000000000D+00
     .660000000000D+02  .475000000000D+02  .430732227440D-08 -.395268296465D+00
     .264868140221D-05  .666736066341D-02  .180304050446D-05  .515377062988D+04
     .590400000000D+06  .577419996262D-07  .159688197748D+01  .689178705215D-07
     .988883546535D+00  .365156250000D+03  .890942426071D+00 -.822034241026D-08
     .248224625266D-09  .100000000000D+01  .195200000000D+04  .000000000000D+00
     .240000000000D+01  .000000000000D+00 -.125728547573D-07  .660000000000D+02
     .583206000000D+06  .400000000000D+01
13 17  6 10 20  0  0.0 -.849165953696D-04 -.125055521494D-11  .000000000000D+00
     .680000000000D+02 -.746875000000D+01  .420803242430D-08  .128278657844D+01
    -.374391674995D-06  .365813658573D-02  .847876071930D-05  .515368836212D+04
     .590400000000D+06  .353902578354D-07 -.439549719296D+00 -.633299350739D-07
     .969648334522D+00  .220593750000D+03  .183155201373D+01 -.781175396234D-08
    -.458947688442D-09  .100000000000D+01  .195200000000D+04  .000000000000D+00
     .240000000000D+01  .000000000000D+00 -.111758708954D-07  .680000000000D+02
     .583206000000D+06  .400000000000D+01
14 17  6 10 20  0  0.0 -.738953240216D-04 -.136424205266D-11  .000000000000D+00
     .650000000000D+02 -.132812500000D+02  .428553565262D-08  .265601993529D+01
    -.674277544022D-06  .919354020152D-02  .858865678310D-05  .515365645027D+04
     .590400000000D+06  .111758708954D-06 -.479081447962D+00 -.726431608200D-07
     .962132339805D+00  .212812500000D+03 -.195855570468D+01 -.764424698500D-08
    -.503235247482D-09  .100000000000D+01  .195200000000D+04  .000000000000D+00
     .240000000000D+01  .000000000000D+00 -.931322574615D-08  .650000000000D+02
     .583206000000D+06  .400000000000D+01
15 17  6 10 20  0  0.0 -.351485330611D-03 -.682121026330D-12  .000000000000D+00
     .160000000000D+02 -.221250000000D+02  .529986361774D-08  .207240049285D+01
    -.120699405670D-05  .917166634463D-02  .735931098461D-05  .515380749702D+04
     .590400000000D+06 -.169500708580D-06 -.627864678524D+00 -.279396772385D-07
     .929035150980D+00  .223031250000D+03  .583142335110D+00 -.831213194795D-08
    -.517878714584D-09  .100000000000D+01  .195200000000D+04  .000000000000D+00
     .240000000000D+01  .000000000000D+00 -.107102096081D-07  .160000000000D+02
     .583206000000D+06  .400000000000D+01
16 17  6 10 20  0  0.0  .346703454852D-04  .568434188608D-12  .000000000000D+00
     .670000000000D+02  .525312500000D+02  .421981862953D-08 -.238274552292D+01
     .245682895184D-05  .934029708151D-02  .145845115185D-05  .515370963669D+04
     .590400000000D+06  .204890966415D-07  .161575394255D+01 -.229105353355D-06
     .989352386910D+00  .368812500000D+03  .457076902768D+00 -.810033741157D-08
     .302155443130D-09  .100000000000D+01  .195200000000D+04  .000000000000D+00
     .240000000000D+01  .000000000000D+00 -.107102096081D-07  .670000000000D+02
     .583206000000D+06  .400000000000D+01
17 17  6 10 20  0  0.0 -.175376888365D-03  .193267624127D-11  .000000000000D+00
     .570000000000D+02 -.117812500000D+03  .412874340731D-08  .296447433538D+01
    -.599958002567D-05  .116295514163D-01  .504218041897D-05  .515364504242D+04
     .590400000000D+06  .141561031342D-06  .263361665860D+01 -.217929482460D-06
     .980275585876D+00  .289062500000D+03 -.184914344564D+01 -.777139513837D-08
    -.305727020472D-09  .100000000000D+01  .195200000000D+04  .000000000000D+00
     .240000000000D+01  .000000000000D+00 -.111758708954D-07  .570000000000D+02
     .583206000000D+06  .400000000000D+01
18 17  6 10 20  0  0.0  .619489233941D-03  .159161572810D-11  .000000000000D+00
     .220000000000D+02  .240937500000D+02  .548308553538D-08 -.187420632495D+01
     .134110450745D-05  .181317359675D-01  .519677996635D-05  .515360198593D+04
     .590400000000D+06  .430271029472D-06 -.164876289108D+01  .108033418655D-06
     .925174359488D+00  .259031250000D+03 -.180069690193D+01 -.823069998455D-08
     .243581574722D-09  .100000000000D+01  .195200000000D+04  .000000000000D+00
     .240000000000D+01  .000000000000D+00 -.111758708954D-07  .220000000000D+02
     .583206000000D+06  .400000000000D+01
